{
    "links": {
        "next": "https://api.nasa.gov/neo/rest/v1/feed?start_date=2017-08-02&end_date=2017-08-02&detailed=true&api_key=S3PmfcdtXaoYuUfgeotZnnBPIM0aR73Tvc8h6Ae9",
        "prev": "https://api.nasa.gov/neo/rest/v1/feed?start_date=2017-07-31&end_date=2017-07-31&detailed=true&api_key=S3PmfcdtXaoYuUfgeotZnnBPIM0aR73Tvc8h6Ae9",
        "self": "https://api.nasa.gov/neo/rest/v1/feed?start_date=2017-08-01&end_date=2017-08-01&detailed=true&api_key=S3PmfcdtXaoYuUfgeotZnnBPIM0aR73Tvc8h6Ae9"
    },
    "element_count": 8,
    "near_earth_objects": {
        "2017-08-01": [ {
            "links": {
                "self": "https://api.nasa.gov/neo/rest/v1/neo/3607504?api_key=S3PmfcdtXaoYuUfgeotZnnBPIM0aR73Tvc8h6Ae9"
            },
            "neo_reference_id": "3607504",
            "name": "(2012 PZ17)",
            "nasa_jpl_url": "http://ssd.jpl.nasa.gov/sbdb.cgi?sstr=3607504",
            "absolute_magnitude_h": 26.7,
            "estimated_diameter": {
                "kilometers": {
                    "estimated_diameter_min": 0.0121494041,
                    "estimated_diameter_max": 0.0271668934
                },
                "meters": {
                    "estimated_diameter_min": 12.14940408,
                    "estimated_diameter_max": 27.1668934089
                },
                "miles": {
                    "estimated_diameter_min": 0.0075492874,
                    "estimated_diameter_max": 0.0168807197
                },
                "feet": {
                    "estimated_diameter_min": 39.8602508817,
                    "estimated_diameter_max": 89.1302305717
                }
            },
            "is_potentially_hazardous_asteroid": false,
            "close_approach_data": [{
                "close_approach_date": "2017-08-01",
                "epoch_date_close_approach": 1501570800000,
                "relative_velocity": {
                    "kilometers_per_second": "15.2512464981",
                    "kilometers_per_hour": "54904.4873930974",
                    "miles_per_hour": "34115.513291561"
                },
                "miss_distance": {
                    "astronomical": "0.4109617121",
                    "lunar": "159.8641052246",
                    "kilometers": "61479000",
                    "miles": "38201280"
                },
                "orbiting_body": "Earth"
            }],
            "orbital_data": {
                "orbit_id": "10",
                "orbit_determination_date": "2017-04-06 08:49:19",
                "orbit_uncertainty": "6",
                "minimum_orbit_intersection": ".00647264",
                "jupiter_tisserand_invariant": "6.636",
                "epoch_osculation": "2458000.5",
                "eccentricity": ".1423617198279005",
                "semi_major_axis": ".894172633918396",
                "inclination": "5.420712819993159",
                "ascending_node_longitude": "139.8702448539093",
                "orbital_period": "308.8378270556223",
                "perihelion_distance": ".7668766799307294",
                "perihelion_argument": "7.35730095207625",
                "aphelion_distance": "1.021468587906063",
                "perihelion_time": "2457858.408473272065",
                "mean_anomaly": "165.6304543706163",
                "mean_motion": "1.165660318984058",
                "equinox": "J2000"
            }
        }, {
            "links": {
                "self": "https://api.nasa.gov/neo/rest/v1/neo/3621808?api_key=S3PmfcdtXaoYuUfgeotZnnBPIM0aR73Tvc8h6Ae9"
            },
            "neo_reference_id": "3621808",
            "name": "(2012 YD7)",
            "nasa_jpl_url": "http://ssd.jpl.nasa.gov/sbdb.cgi?sstr=3621808",
            "absolute_magnitude_h": 24.3,
            "estimated_diameter": {
                "kilometers": {
                    "estimated_diameter_min": 0.0366906138,
                    "estimated_diameter_max": 0.0820427065
                },
                "meters": {
                    "estimated_diameter_min": 36.6906137531,
                    "estimated_diameter_max": 82.0427064882
                },
                "miles": {
                    "estimated_diameter_min": 0.0227984834,
                    "estimated_diameter_max": 0.0509789586
                },
                "feet": {
                    "estimated_diameter_min": 120.3760332259,
                    "estimated_diameter_max": 269.1689931548
                }
            },
            "is_potentially_hazardous_asteroid": false,
            "close_approach_data": [{
                "close_approach_date": "2017-08-01",
                "epoch_date_close_approach": 1501570800000,
                "relative_velocity": {
                    "kilometers_per_second": "9.1404178755",
                    "kilometers_per_hour": "32905.5043518746",
                    "miles_per_hour": "20446.2007457523"
                },
                "miss_distance": {
                    "astronomical": "0.3068092415",
                    "lunar": "119.3488006592",
                    "kilometers": "45898012",
                    "miles": "28519702"
                },
                "orbiting_body": "Earth"
            }],
            "orbital_data": {
                "orbit_id": "11",
                "orbit_determination_date": "2017-04-06 08:47:30",
                "orbit_uncertainty": "6",
                "minimum_orbit_intersection": ".0176679",
                "jupiter_tisserand_invariant": "6.710",
                "epoch_osculation": "2458000.5",
                "eccentricity": ".2188246479519052",
                "semi_major_axis": ".8807603940786342",
                "inclination": "2.539955944876938",
                "ascending_node_longitude": "72.80569810923522",
                "orbital_period": "301.9152794474248",
                "perihelion_distance": ".6880283109143958",
                "perihelion_argument": "201.5871641006392",
                "aphelion_distance": "1.073492477242872",
                "perihelion_time": "2457945.828344577145",
                "mean_anomaly": "65.18979757583048",
                "mean_motion": "1.192387482537762",
                "equinox": "J2000"
            }
        }, {
            "links": {
                "self": "https://api.nasa.gov/neo/rest/v1/neo/3660308?api_key=S3PmfcdtXaoYuUfgeotZnnBPIM0aR73Tvc8h6Ae9"
            },
            "neo_reference_id": "3660308",
            "name": "(2014 BR57)",
            "nasa_jpl_url": "http://ssd.jpl.nasa.gov/sbdb.cgi?sstr=3660308",
            "absolute_magnitude_h": 23.9,
            "estimated_diameter": {
                "kilometers": {
                    "estimated_diameter_min": 0.04411182,
                    "estimated_diameter_max": 0.0986370281
                },
                "meters": {
                    "estimated_diameter_min": 44.1118199997,
                    "estimated_diameter_max": 98.6370281305
                },
                "miles": {
                    "estimated_diameter_min": 0.0274098057,
                    "estimated_diameter_max": 0.0612901888
                },
                "feet": {
                    "estimated_diameter_min": 144.7238235278,
                    "estimated_diameter_max": 323.6123073718
                }
            },
            "is_potentially_hazardous_asteroid": false,
            "close_approach_data": [{
                "close_approach_date": "2017-08-01",
                "epoch_date_close_approach": 1501570800000,
                "relative_velocity": {
                    "kilometers_per_second": "20.3990544274",
                    "kilometers_per_hour": "73436.5959388002",
                    "miles_per_hour": "45630.6448487506"
                },
                "miss_distance": {
                    "astronomical": "0.3278736721",
                    "lunar": "127.5428619385",
                    "kilometers": "49049204",
                    "miles": "30477762"
                },
                "orbiting_body": "Earth"
            }],
            "orbital_data": {
                "orbit_id": "32",
                "orbit_determination_date": "2017-07-27 17:06:05",
                "orbit_uncertainty": "3",
                "minimum_orbit_intersection": ".0109543",
                "jupiter_tisserand_invariant": "4.767",
                "epoch_osculation": "2458000.5",
                "eccentricity": ".3988200079942557",
                "semi_major_axis": "1.35791927755497",
                "inclination": "3.854342068985657",
                "ascending_node_longitude": "341.218636234598",
                "orbital_period": "577.9754044222896",
                "perihelion_distance": ".8163539004249429",
                "perihelion_argument": "237.1733163416558",
                "aphelion_distance": "1.899484654684997",
                "perihelion_time": "2457913.298120130695",
                "mean_anomaly": "54.31490079465933",
                "mean_motion": ".6228638749080249",
                "equinox": "J2000"
            }
        }]
    }
}
